NORAD_CAT_ID,OBJECT_NAME,OBJECT_TYPE,EPOCH,MEAN_MOTION,ECCENTRICITY,INCLINATION,RA_OF_ASC_NODE,ARG_OF_PERICENTER,MEAN_ANOMALY,BSTAR,MEAN_MOTION_DOT,MEAN_MOTION_DDOT,TLE_LINE0,TLE_LINE1,TLE_LINE2,SEMIMAJOR_AXIS,PERIOD,APOGEE,PERIGEE,DECAYED
52565.0,STARLINK-3911,PAYLOAD,2024-06-23 23:52:04,15.08844063,0.0001454,53.2184,39.0051,90.8401,269.2758,0.00013917,1.928e-05,0.0,0 STARLINK-3911,1 52565U 22051AJ  24175.99449154  .00001928  00000-0  13917-3 0  9991,2 52565  53.2184  39.0051 0001454  90.8401 269.2758 15.08844063117425,6917.868,95.437,540.739,538.727,0.0
52565.0,STARLINK-3911,PAYLOAD,2024-06-24 20:32:05,15.08839913,0.0001602,53.2179,35.1372,110.7423,249.374,4.6601e-05,4.54e-06,0.0,0 STARLINK-3911,1 52565U 22051AJ  24176.85561688  .00000454  00000-0  46601-4 0  9994,2 52565  53.2179  35.1372 0001602 110.7423 249.3740 15.08839913117555,6917.881,95.438,540.854,538.637,0.0
52565.0,STARLINK-3911,PAYLOAD,2024-06-24 22:07:28,15.08841447,0.0001542,53.2181,34.8358,102.0406,258.0759,5.0395e-05,5.14e-06,0.0,0 STARLINK-3911,1 52565U 22051AJ  24176.92185589  .00000514  00000-0  50395-4 0  9996,2 52565  53.2181  34.8358 0001542 102.0406 258.0759 15.08841447117637,6917.876,95.437,540.808,538.674,0.0
52565.0,STARLINK-3911,PAYLOAD,2024-06-25 21:58:15,15.08849171,0.0001483,53.2184,30.3763,78.7206,281.3952,1.8218e-05,2e-08,0.0,0 STARLINK-3911,1 52565U 22051AJ  24177.91545210  .00000002  00000-0  18218-4 0  9997,2 52565  53.2184  30.3763 0001483  78.7206 281.3952 15.08849171117717,6917.852,95.437,540.743,538.691,0.0
52565.0,STARLINK-3911,PAYLOAD,2024-06-27 07:21:21,15.08841988,0.0001483,53.2165,24.134,70.5729,289.5423,6.5827e-05,7.6e-06,0.0,0 STARLINK-3911,1 52565U 22051AJ  24179.30649359  .00000760  00000-0  65827-4 0  9990,2 52565  53.2165  24.1340 0001483  70.5729 289.5423 15.08841988117999,6917.874,95.437,540.765,538.713,0.0
52565.0,STARLINK-3911,PAYLOAD,2024-06-27 20:04:26,15.08837691,0.0001451,53.2155,21.7563,81.9962,278.1195,-5.3272e-05,-1.136e-05,0.0,0 STARLINK-3911,1 52565U 22051AJ  24179.83641986 -.00001136  00000-0 -53272-4 0  9997,2 52565  53.2155  21.7563 0001451  81.9962 278.1195 15.08837691118074,6917.887,95.438,540.756,538.749,0.0
52565.0,STARLINK-3911,PAYLOAD,2024-06-28 19:55:12,15.08846726,0.0001306,53.2165,17.2923,99.703,260.4109,0.00019043,2.745e-05,0.0,0 STARLINK-3911,1 52565U 22051AJ  24180.83000627  .00002745  00000-0  19043-3 0  9992,2 52565  53.2165  17.2923 0001306  99.7030 260.4109 15.08846726118222,6917.86,95.437,540.628,538.821,0.0
52565.0,STARLINK-3911,PAYLOAD,2024-06-29 13:24:28,15.08829175,0.0001318,53.2163,14.0203,103.3537,256.7602,3.0276e-05,1.94e-06,0.0,0 STARLINK-3911,1 52565U 22051AJ  24181.55866555  .00000194  00000-0  30276-4 0  9990,2 52565  53.2163  14.0203 0001318 103.3537 256.7602 15.08829175118330,6917.913,95.438,540.69,538.867,0.0
52565.0,STARLINK-3911,PAYLOAD,2024-06-29 19:46:01,15.08827618,0.0001152,53.2156,12.8332,84.7399,275.3725,2.896e-05,1.73e-06,0.0,0 STARLINK-3911,1 52565U 22051AJ  24181.82362933  .00000173  00000-0  28960-4 0  9995,2 52565  53.2156  12.8332 0001152  84.7399 275.3725 15.08827618118305,6917.918,95.438,540.58,538.986,0.0
52565.0,STARLINK-3911,PAYLOAD,2024-06-30 11:39:52,15.08844216,0.0001177,53.2166,9.8602,93.1299,266.9828,-5.6625e-05,-1.189e-05,0.0,0 STARLINK-3911,1 52565U 22051AJ  24182.48602659 -.00001189  00000-0 -56625-4 0  9999,2 52565  53.2166   9.8602 0001177  93.1299 266.9828 15.08844216118473,6917.868,95.437,540.547,538.918,0.0
52565.0,STARLINK-3911,PAYLOAD,2024-06-30 19:36:47,15.08856222,0.000121,53.2164,8.375,100.6287,259.4842,3.8735e-05,3.29e-06,0.0,0 STARLINK-3911,1 52565U 22051AJ  24182.81721488  .00000329  00000-0  38735-4 0  9993,2 52565  53.2164   8.3750 0001210 100.6287 259.4842 15.08856222118527,6917.831,95.437,540.533,538.859,0.0
52565.0,STARLINK-3911,PAYLOAD,2024-07-01 11:30:39,15.08837338,0.0001122,53.2167,5.4039,82.8075,277.3045,0.000198,2.865e-05,0.0,0 STARLINK-3911,1 52565U 22051AJ  24183.47962348  .00002865  00000-0  19800-3 0  9996,2 52565  53.2167   5.4039 0001122  82.8075 277.3045 15.08837338118628,6917.889,95.438,540.53,538.977,0.0
52565.0,STARLINK-3911,PAYLOAD,2024-07-01 21:02:58,15.08839937,0.0001547,53.2169,3.6156,84.5297,275.5872,0.00017473,2.494e-05,0.0,0 STARLINK-3911,1 52565U 22051AJ  24183.87706458  .00002494  00000-0  17473-3 0  9990,2 52565  53.2169   3.6156 0001547  84.5297 275.5872 15.08839937118610,6917.881,95.438,540.816,538.675,0.0
52565.0,STARLINK-3911,PAYLOAD,2024-07-02 04:59:54,15.08840338,0.0001527,53.2162,2.1278,75.8085,284.3077,0.00010199,1.336e-05,0.0,0 STARLINK-3911,1 52565U 22051AJ  24184.20826614  .00001336  00000-0  10199-3 0  9997,2 52565  53.2162   2.1278 0001527  75.8085 284.3077 15.08840338118665,6917.879,95.438,540.801,538.688,0.0
52565.0,STARLINK-3911,PAYLOAD,2024-07-02 20:53:45,15.08843961,0.0001214,53.2172,359.1543,74.8364,285.2762,-4.081e-05,-9.37e-06,0.0,0 STARLINK-3911,1 52565U 22051AJ  24184.87066645 -.00000937  00000-0 -40810-4 0  9992,2 52565  53.2172 359.1543 0001214  74.8364 285.2762 15.08843961118833,6917.868,95.437,540.573,538.893,0.0
52565.0,STARLINK-3911,PAYLOAD,2024-07-03 11:12:14,15.08834525,0.0001425,53.217,356.4791,83.4854,276.63,1.5117e-05,-4.7e-07,0.0,0 STARLINK-3911,1 52565U 22051AJ  24185.46683215 -.00000047  00000-0  15117-4 0  9999,2 52565  53.2170 356.4791 0001425  83.4854 276.6300 15.08834525118928,6917.897,95.438,540.748,538.776,0.0
52565.0,STARLINK-3911,PAYLOAD,2024-07-03 17:33:46,15.08836402,0.0001361,53.2166,355.2897,85.2244,274.8904,2.6736e-05,1.38e-06,0.0,0 STARLINK-3911,1 52565U 22051AJ  24185.73179068  .00000138  00000-0  26736-4 0  9994,2 52565  53.2166 355.2897 0001361  85.2244 274.8904 15.08836402118891,6917.891,95.438,540.698,538.815,0.0
52565.0,STARLINK-3911,PAYLOAD,2024-07-04 04:41:29,15.08828831,0.0001672,53.2161,353.2058,89.1604,270.9579,-8.2522e-05,-1.601e-05,0.0,0 STARLINK-3911,1 52565U 22051AJ  24186.19547764 -.00001601  00000-0 -82522-4 0  9990,2 52565  53.2161 353.2058 0001672  89.1604 270.9579 15.08828831118961,6917.915,95.438,540.936,538.623,0.0
52565.0,STARLINK-3911,PAYLOAD,2024-07-04 17:24:33,15.08833601,8.59e-05,53.2176,350.8288,81.389,278.72,9.7967e-05,1.272e-05,0.0,0 STARLINK-3911,1 52565U 22051AJ  24186.72538957  .00001272  00000-0  97967-4 0  9994,2 52565  53.2176 350.8288 0000859  81.3890 278.7200 15.08833601119118,6917.9,95.438,540.359,539.171,0.0
52565.0,STARLINK-3911,PAYLOAD,2024-07-05 14:04:33,15.08846665,0.0001343,53.2174,346.9609,94.8807,265.2339,3.7065e-05,3.02e-06,0.0,0 STARLINK-3911,1 52565U 22051AJ  24187.58650387  .00000302  00000-0  37065-4 0  9997,2 52565  53.2174 346.9609 0001343  94.8807 265.2339 15.08846665119179,6917.86,95.437,540.654,538.796,0.0
52565.0,STARLINK-3911,PAYLOAD,2024-07-05 20:26:06,15.08848531,0.0001135,53.2198,345.7705,116.6378,243.4731,0.00012311,1.672e-05,0.0,0 STARLINK-3911,1 52565U 22051AJ  24187.85145855  .00001672  00000-0  12311-3 0  9993,2 52565  53.2198 345.7705 0001135 116.6378 243.4731 15.08848531119284,6917.854,95.437,540.504,538.934,0.0
52565.0,STARLINK-3911,PAYLOAD,2024-07-06 07:33:48,15.08830458,0.0001317,53.2182,343.6856,118.7852,241.3272,0.00012443,1.692e-05,0.0,0 STARLINK-3911,1 52565U 22051AJ  24188.31514884  .00001692  00000-0  12443-3 0  9995,2 52565  53.2182 343.6856 0001317 118.7852 241.3272 15.08830458119357,6917.91,95.438,540.686,538.863,0.0
52565.0,STARLINK-3911,PAYLOAD,2024-07-06 13:55:21,15.08836459,0.0001355,53.2183,342.4963,113.7688,246.3447,-3.1982e-05,-7.97e-06,0.0,0 STARLINK-3911,1 52565U 22051AJ  24188.58010922 -.00000797  00000-0 -31982-4 0  9995,2 52565  53.2183 342.4963 0001355 113.7688 246.3447 15.08836459119321,6917.891,95.438,540.694,538.819,0.0
52565.0,STARLINK-3911,PAYLOAD,2024-07-06 20:16:53,15.08841295,0.0001348,53.2177,341.3119,92.8443,267.2703,6.7478e-06,-1.81e-06,0.0,0 STARLINK-3911,1 52565U 22051AJ  24188.84506632 -.00000181  00000-0  67478-5 0  9998,2 52565  53.2177 341.3119 0001348  92.8443 267.2703 15.08841295119436,6917.876,95.437,540.674,538.809,0.0
52565.0,STARLINK-3911,PAYLOAD,2024-07-07 10:35:22,15.08838756,0.0001191,53.2176,338.6355,89.4359,270.677,-6.6718e-05,-1.349e-05,0.0,0 STARLINK-3911,1 52565U 22051AJ  24189.44123141 -.00001349  00000-0 -66718-4 0  9998,2 52565  53.2176 338.6355 0001191  89.4359 270.6770 15.08838756119452,6917.884,95.438,540.573,538.925,0.0
52565.0,STARLINK-3911,PAYLOAD,2024-07-08 13:36:55,15.08830005,0.0001405,53.2187,333.5823,100.8483,259.2667,4.1694e-05,3.76e-06,0.0,0 STARLINK-3911,1 52565U 22051AJ  24190.56731446  .00000376  00000-0  41694-4 0  9999,2 52565  53.2187 333.5823 0001405 100.8483 259.2667 15.08830005119695,6917.911,95.438,540.748,538.804,0.0
52565.0,STARLINK-3911,PAYLOAD,2024-07-08 18:23:04,15.08837131,0.0001324,53.2192,332.692,91.7125,268.4019,9.5092e-05,1.226e-05,0.0,0 STARLINK-3911,1 52565U 22051AJ  24190.76602954  .00001226  00000-0  95092-4 0  9998,2 52565  53.2192 332.6920 0001324  91.7125 268.4019 15.08837131119724,6917.889,95.438,540.67,538.838,0.0
52565.0,STARLINK-3911,PAYLOAD,2024-07-09 13:27:42,15.08836617,0.0001354,53.2185,329.1227,95.9283,264.1864,4.8255e-05,4.8e-06,0.0,0 STARLINK-3911,1 52565U 22051AJ  24191.56091339  .00000480  00000-0  48255-4 0  9996,2 52565  53.2185 329.1227 0001354  95.9283 264.1864 15.08836617119775,6917.891,95.438,540.692,538.819,0.0
52565.0,STARLINK-3911,PAYLOAD,2024-07-09 16:38:28,15.08843733,0.0001381,53.2182,328.5275,91.22,268.8951,4.0975e-05,3.64e-06,0.0,0 STARLINK-3911,1 52565U 22051AJ  24191.69338938  .00000364  00000-0  40975-4 0  9991,2 52565  53.2182 328.5275 0001381  91.2200 268.8951 15.08843733119793,6917.869,95.437,540.689,538.779,0.0
52565.0,STARLINK-3911,PAYLOAD,2024-07-10 02:10:47,15.08840043,0.0001437,53.2182,326.7425,84.6026,275.513,1.3703e-05,-7e-07,0.0,0 STARLINK-3911,1 52565U 22051AJ  24192.09083253 -.00000070  00000-0  13703-4 0  9997,2 52565  53.2182 326.7425 0001437  84.6026 275.5130 15.08840043119924,6917.88,95.438,540.739,538.751,0.0
